start=new Date('2021-09-19T00:00:00.000Z').valueOf();
sats=[{"PERIOD":"95.592","TIME_SYSTEM":"UTC","RA_OF_ASC_NODE":"308.0930","TLE_LINE1":"1 48112U 21027W   21261.54262831 -.00000769  00000-0 -32784-4 0  9993","MEAN_ELEMENT_THEORY":"SGP4","MEAN_ANOMALY":"260.9245","APOAPSIS":"547.750","MEAN_MOTION":"15.06394611","CENTER_NAME":"EARTH","GP_ID":"184946332","MEAN_MOTION_DOT":"-0.00000769","SEMIMAJOR_AXIS":"6925.365","REV_AT_EPOCH":"2619","DECAY_DATE":null,"CLASSIFICATION_TYPE":"U","TLE_LINE2":"2 48112  53.0576 308.0930 0000751  99.1829 260.9245 15.06394611 26190","EPHEMERIS_TYPE":"0","OBJECT_NAME":"STARLINK-2449","ECCENTRICITY":"0.00007510","ELEMENT_SET_NO":"999","BSTAR":"-0.00003278400000","MEAN_MOTION_DDOT":"0.0000000000000","ARG_OF_PERICENTER":"99.1829","OBJECT_ID":"2021-027W","EPOCH":"2021-09-18T13:01:23.085984","SITE":"AFETR","PERIAPSIS":"546.710","FILE":"3118594","NORAD_CAT_ID":"48112","OBJECT_TYPE":"PAYLOAD","INCLINATION":"53.0576","COUNTRY_CODE":"US","LAUNCH_DATE":"2021-04-07","RCS_SIZE":"LARGE","REF_FRAME":"TEME"},{"EPHEMERIS_TYPE":"0","TLE_LINE2":"2 48113  53.0558 303.3105 0000397 108.8449 251.2583 15.06398581 26249","DECAY_DATE":null,"CLASSIFICATION_TYPE":"U","SEMIMAJOR_AXIS":"6925.353","REV_AT_EPOCH":"2624","MEAN_MOTION_DOT":"0.00001244","CENTER_NAME":"EARTH","GP_ID":"184947583","MEAN_MOTION":"15.06398581","APOAPSIS":"547.493","MEAN_ANOMALY":"251.2583","MEAN_ELEMENT_THEORY":"SGP4","TLE_LINE1":"1 48113U 21027X   21261.49427097  .00001244  00000-0  10237-3 0  9990","RA_OF_ASC_NODE":"303.3105","TIME_SYSTEM":"UTC","PERIOD":"95.592","RCS_SIZE":"LARGE","REF_FRAME":"TEME","LAUNCH_DATE":"2021-04-07","COUNTRY_CODE":"US","INCLINATION":"53.0558","OBJECT_TYPE":"PAYLOAD","NORAD_CAT_ID":"48113","FILE":"3118594","PERIAPSIS":"546.943","SITE":"AFETR","EPOCH":"2021-09-18T11:51:45.011808","OBJECT_ID":"2021-027X","ARG_OF_PERICENTER":"108.8449","MEAN_MOTION_DDOT":"0.0000000000000","BSTAR":"0.00010237000000","ELEMENT_SET_NO":"999","ECCENTRICITY":"0.00003970","OBJECT_NAME":"STARLINK-2450"},{"RA_OF_ASC_NODE":"298.4879","TIME_SYSTEM":"UTC","PERIOD":"95.593","MEAN_ANOMALY":"255.6634","MEAN_ELEMENT_THEORY":"SGP4","TLE_LINE1":"1 48114U 21027Y   21261.45509831  .00000457  00000-0  49584-4 0  9997","SEMIMAJOR_AXIS":"6925.381","REV_AT_EPOCH":"2632","MEAN_MOTION_DOT":"0.00000457","GP_ID":"184947310","CENTER_NAME":"EARTH","MEAN_MOTION":"15.06389448","APOAPSIS":"547.494","EPHEMERIS_TYPE":"0","TLE_LINE2":"2 48114  53.0562 298.4879 0000358 104.4394 255.6634 15.06389448 26321","CLASSIFICATION_TYPE":"U","DECAY_DATE":null,"ARG_OF_PERICENTER":"104.4394","MEAN_MOTION_DDOT":"0.0000000000000","BSTAR":"0.00004958400000","ELEMENT_SET_NO":"999","ECCENTRICITY":"0.00003580","OBJECT_NAME":"STARLINK-2451","OBJECT_TYPE":"PAYLOAD","NORAD_CAT_ID":"48114","FILE":"3118594","PERIAPSIS":"546.998","EPOCH":"2021-09-18T10:55:20.493984","SITE":"AFETR","OBJECT_ID":"2021-027Y","INCLINATION":"53.0562","RCS_SIZE":"LARGE","REF_FRAME":"TEME","LAUNCH_DATE":"2021-04-07","COUNTRY_CODE":"US"},{"TIME_SYSTEM":"UTC","PERIOD":"95.593","RA_OF_ASC_NODE":"293.3634","MEAN_ANOMALY":"259.4411","MEAN_ELEMENT_THEORY":"SGP4","TLE_LINE1":"1 48115U 21027Z   21261.48320701  .00000547  00000-0  55590-4 0  9992","MEAN_MOTION_DOT":"0.00000547","SEMIMAJOR_AXIS":"6925.384","REV_AT_EPOCH":"2639","MEAN_MOTION":"15.06388327","APOAPSIS":"547.562","GP_ID":"184946582","CENTER_NAME":"EARTH","EPHEMERIS_TYPE":"0","TLE_LINE2":"2 48115  53.0531 293.3634 0000452 100.6629 259.4411 15.06388327 26392","DECAY_DATE":null,"CLASSIFICATION_TYPE":"U","ELEMENT_SET_NO":"999","MEAN_MOTION_DDOT":"0.0000000000000","BSTAR":"0.00005559000000","ARG_OF_PERICENTER":"100.6629","OBJECT_NAME":"STARLINK-2452","ECCENTRICITY":"0.00004520","FILE":"3118594","NORAD_CAT_ID":"48115","OBJECT_TYPE":"PAYLOAD","OBJECT_ID":"2021-027Z","PERIAPSIS":"546.936","EPOCH":"2021-09-18T11:35:49.085664","SITE":"AFETR","INCLINATION":"53.0531","REF_FRAME":"TEME","RCS_SIZE":"LARGE","LAUNCH_DATE":"2021-04-07","COUNTRY_CODE":"US"},{"MEAN_MOTION_DOT":"-0.00001103","SEMIMAJOR_AXIS":"6925.376","REV_AT_EPOCH":"2625","APOAPSIS":"547.709","MEAN_MOTION":"15.06391177","CENTER_NAME":"EARTH","GP_ID":"184946832","TLE_LINE2":"2 48116  53.0572 303.3335 0000677 110.4701 249.6361 15.06391177 26254","EPHEMERIS_TYPE":"0","CLASSIFICATION_TYPE":"U","DECAY_DATE":null,"PERIOD":"95.593","TIME_SYSTEM":"UTC","RA_OF_ASC_NODE":"303.3335","MEAN_ELEMENT_THEORY":"SGP4","MEAN_ANOMALY":"249.6361","TLE_LINE1":"1 48116U 21027AA  21261.49059279 -.00001103  00000-0 -55171-4 0  9999","INCLINATION":"53.0572","RCS_SIZE":"LARGE","REF_FRAME":"TEME","COUNTRY_CODE":"US","LAUNCH_DATE":"2021-04-07","ELEMENT_SET_NO":"999","MEAN_MOTION_DDOT":"0.0000000000000","BSTAR":"-0.00005517100000","ARG_OF_PERICENTER":"110.4701","OBJECT_NAME":"STARLINK-2454","ECCENTRICITY":"0.00006770","NORAD_CAT_ID":"48116","FILE":"3118594","OBJECT_TYPE":"PAYLOAD","OBJECT_ID":"2021-027AA","EPOCH":"2021-09-18T11:46:27.217056","SITE":"AFETR","PERIAPSIS":"546.772"},{"MEAN_MOTION_DDOT":"0.0000000000000","BSTAR":"0.00007316800000","ARG_OF_PERICENTER":"105.7268","ELEMENT_SET_NO":"999","ECCENTRICITY":"0.00003990","OBJECT_NAME":"STARLINK-2455","OBJECT_TYPE":"PAYLOAD","FILE":"3118594","NORAD_CAT_ID":"48117","PERIAPSIS":"546.937","SITE":"AFETR","EPOCH":"2021-09-18T12:42:11.129472","OBJECT_ID":"2021-027AB","INCLINATION":"53.0548","RCS_SIZE":"LARGE","REF_FRAME":"TEME","LAUNCH_DATE":"2021-04-07","COUNTRY_CODE":"US","RA_OF_ASC_NODE":"283.1494","TIME_SYSTEM":"UTC","PERIOD":"95.592","MEAN_ANOMALY":"254.3765","MEAN_ELEMENT_THEORY":"SGP4","TLE_LINE1":"1 48117U 21027AB  21261.52929548  .00000809  00000-0  73168-4 0  9995","SEMIMAJOR_AXIS":"6925.349","REV_AT_EPOCH":"2654","MEAN_MOTION_DOT":"0.00000809","GP_ID":"184947084","CENTER_NAME":"EARTH","MEAN_MOTION":"15.06400012","APOAPSIS":"547.490","TLE_LINE2":"2 48117  53.0548 283.1494 0000399 105.7268 254.3765 15.06400012 26547","EPHEMERIS_TYPE":"0","CLASSIFICATION_TYPE":"U","DECAY_DATE":null},{"MEAN_ELEMENT_THEORY":"SGP4","MEAN_ANOMALY":"273.9873","TLE_LINE1":"1 48118U 21027AC  21261.47401134  .00000531  00000-0  54489-4 0  9993","PERIOD":"95.592","TIME_SYSTEM":"UTC","RA_OF_ASC_NODE":"283.3967","EPHEMERIS_TYPE":"0","TLE_LINE2":"2 48118  53.0545 283.3967 0000591  86.1183 273.9873 15.06395633 26138","CLASSIFICATION_TYPE":"U","DECAY_DATE":null,"MEAN_MOTION_DOT":"0.00000531","SEMIMAJOR_AXIS":"6925.362","REV_AT_EPOCH":"2613","APOAPSIS":"547.636","MEAN_MOTION":"15.06395633","CENTER_NAME":"EARTH","GP_ID":"184950040","FILE":"3118670","NORAD_CAT_ID":"48118","OBJECT_TYPE":"PAYLOAD","OBJECT_ID":"2021-027AC","EPOCH":"2021-09-18T11:22:34.579776","SITE":"AFETR","PERIAPSIS":"546.818","ELEMENT_SET_NO":"999","MEAN_MOTION_DDOT":"0.0000000000000","ARG_OF_PERICENTER":"86.1183","BSTAR":"0.00005448900000","OBJECT_NAME":"STARLINK-2458","ECCENTRICITY":"0.00005910","REF_FRAME":"TEME","RCS_SIZE":"LARGE","COUNTRY_CODE":"US","LAUNCH_DATE":"2021-04-07","INCLINATION":"53.0545"},{"CLASSIFICATION_TYPE":"U","DECAY_DATE":null,"TLE_LINE2":"2 48119  53.0545 283.4120 0000321  74.5933 285.5091 15.06398193 26524","EPHEMERIS_TYPE":"0","MEAN_MOTION":"15.06398193","APOAPSIS":"547.441","CENTER_NAME":"EARTH","GP_ID":"184946083","MEAN_MOTION_DOT":"0.00000924","SEMIMAJOR_AXIS":"6925.354","REV_AT_EPOCH":"2652","TLE_LINE1":"1 48119U 21027AD  21261.47032107  .00000924  00000-0  80916-4 0  9994","MEAN_ANOMALY":"285.5091","MEAN_ELEMENT_THEORY":"SGP4","TIME_SYSTEM":"UTC","PERIOD":"95.592","RA_OF_ASC_NODE":"283.4120","LAUNCH_DATE":"2021-04-07","COUNTRY_CODE":"US","REF_FRAME":"TEME","RCS_SIZE":"LARGE","INCLINATION":"53.0545","OBJECT_ID":"2021-027AD","PERIAPSIS":"546.997","EPOCH":"2021-09-18T11:17:15.740448","SITE":"AFETR","NORAD_CAT_ID":"48119","FILE":"3118594","OBJECT_TYPE":"PAYLOAD","OBJECT_NAME":"STARLINK-2459","ECCENTRICITY":"0.00003210","ELEMENT_SET_NO":"999","BSTAR":"0.00008091600000","MEAN_MOTION_DDOT":"0.0000000000000","ARG_OF_PERICENTER":"74.5933"},{"PERIOD":"95.592","TIME_SYSTEM":"UTC","RA_OF_ASC_NODE":"302.7950","MEAN_ELEMENT_THEORY":"SGP4","MEAN_ANOMALY":"279.1004","TLE_LINE1":"1 48120U 21027AE  21261.60854758  .00002142  00000-0  16264-3 0  9993","MEAN_MOTION_DOT":"0.00002142","SEMIMAJOR_AXIS":"6925.360","REV_AT_EPOCH":"2628","APOAPSIS":"547.718","MEAN_MOTION":"15.06396252","GP_ID":"184974943","CENTER_NAME":"EARTH","EPHEMERIS_TYPE":"0","TLE_LINE2":"2 48120  53.0550 302.7950 0000712  81.0065 279.1004 15.06396252 26281","CLASSIFICATION_TYPE":"U","DECAY_DATE":null,"ELEMENT_SET_NO":"999","BSTAR":"0.00016264000000","MEAN_MOTION_DDOT":"0.0000000000000","ARG_OF_PERICENTER":"81.0065","OBJECT_NAME":"STARLINK-2460","ECCENTRICITY":"0.00007120","FILE":"3118781","NORAD_CAT_ID":"48120","OBJECT_TYPE":"PAYLOAD","OBJECT_ID":"2021-027AE","SITE":"AFETR","EPOCH":"2021-09-18T14:36:18.510912","PERIAPSIS":"546.732","INCLINATION":"53.0550","RCS_SIZE":"LARGE","REF_FRAME":"TEME","COUNTRY_CODE":"US","LAUNCH_DATE":"2021-04-07"},{"DECAY_DATE":null,"CLASSIFICATION_TYPE":"U","TLE_LINE2":"2 48121  53.0554 292.0306 0000175 136.4527 223.6476 15.06394474 26431","EPHEMERIS_TYPE":"0","MEAN_MOTION":"15.06394474","APOAPSIS":"547.352","GP_ID":"184973190","CENTER_NAME":"EARTH","MEAN_MOTION_DOT":"0.00000566","SEMIMAJOR_AXIS":"6925.365","REV_AT_EPOCH":"2643","TLE_LINE1":"1 48121U 21027AF  21261.77901833  .00000566  00000-0  56852-4 0  9995","MEAN_ANOMALY":"223.6476","MEAN_ELEMENT_THEORY":"SGP4","TIME_SYSTEM":"UTC","PERIOD":"95.592","RA_OF_ASC_NODE":"292.0306","LAUNCH_DATE":"2021-04-07","COUNTRY_CODE":"US","REF_FRAME":"TEME","RCS_SIZE":"LARGE","INCLINATION":"53.0554","OBJECT_ID":"2021-027AF","PERIAPSIS":"547.109","EPOCH":"2021-09-18T18:41:47.183712","SITE":"AFETR","NORAD_CAT_ID":"48121","FILE":"3118781","OBJECT_TYPE":"PAYLOAD","OBJECT_NAME":"STARLINK-2462","ECCENTRICITY":"0.00001750","ELEMENT_SET_NO":"999","MEAN_MOTION_DDOT":"0.0000000000000","BSTAR":"0.00005685200000","ARG_OF_PERICENTER":"136.4527"}];
